CCSDS_OMM_VERS = 2.0
CREATION_DATE  = 
ORIGINATOR     = 

OBJECT_NAME    = STARLINK-36767
OBJECT_ID      = 2026-032T
CENTER_NAME    = EARTH
REF_FRAME      = TEME
TIME_SYSTEM    = UTC
MEAN_ELEMENT_THEORY = SGP/SGP4

EPOCH          = 2026-03-02T20:00:01.999008
MEAN_MOTION    = 15.75142342
ECCENTRICITY   = .0001497
INCLINATION    = 97.2842
RA_OF_ASC_NODE = 248.0180
ARG_OF_PERICENTER = 86.4029
MEAN_ANOMALY   = 20.3326

EPHEMERIS_TYPE = 0
CLASSIFICATION_TYPE = U
NORAD_CAT_ID   = 67814
ELEMENT_SET_NO = 999
REV_AT_EPOCH   = 367
BSTAR          = .47583E-3
MEAN_MOTION_DOT = .71291E-3
MEAN_MOTION_DDOT = 0

CCSDS_OMM_VERS = 2.0
CREATION_DATE  = 
ORIGINATOR     = 

OBJECT_NAME    = STARLINK-36797
OBJECT_ID      = 2026-032U
CENTER_NAME    = EARTH
REF_FRAME      = TEME
TIME_SYSTEM    = UTC
MEAN_ELEMENT_THEORY = SGP/SGP4

EPOCH          = 2026-03-02T20:00:01.999008
MEAN_MOTION    = 15.75106474
ECCENTRICITY   = .0000892
INCLINATION    = 97.2843
RA_OF_ASC_NODE = 248.0391
ARG_OF_PERICENTER = 97.7529
MEAN_ANOMALY   = 58.9820

EPHEMERIS_TYPE = 0
CLASSIFICATION_TYPE = U
NORAD_CAT_ID   = 67815
ELEMENT_SET_NO = 999
REV_AT_EPOCH   = 361
BSTAR          = .41285E-3
MEAN_MOTION_DOT = .61671E-3
MEAN_MOTION_DDOT = 0

CCSDS_OMM_VERS = 2.0
CREATION_DATE  = 
ORIGINATOR     = 

OBJECT_NAME    = STARLINK-36343
OBJECT_ID      = 2026-032V
CENTER_NAME    = EARTH
REF_FRAME      = TEME
TIME_SYSTEM    = UTC
MEAN_ELEMENT_THEORY = SGP/SGP4

EPOCH          = 2026-03-02T20:00:01.999008
MEAN_MOTION    = 15.80794766
ECCENTRICITY   = .0001638
INCLINATION    = 97.2832
RA_OF_ASC_NODE = 248.0460
ARG_OF_PERICENTER = 78.7639
MEAN_ANOMALY   = 97.9488

EPHEMERIS_TYPE = 0
CLASSIFICATION_TYPE = U
NORAD_CAT_ID   = 67816
ELEMENT_SET_NO = 999
REV_AT_EPOCH   = 361
BSTAR          = .15153E-3
MEAN_MOTION_DOT = .28953E-3
MEAN_MOTION_DDOT = 0

CCSDS_OMM_VERS = 2.0
CREATION_DATE  = 
ORIGINATOR     = 

OBJECT_NAME    = STARLINK-36756
OBJECT_ID      = 2026-032W
CENTER_NAME    = EARTH
REF_FRAME      = TEME
TIME_SYSTEM    = UTC
MEAN_ELEMENT_THEORY = SGP/SGP4

EPOCH          = 2026-03-02T20:00:01.999008
MEAN_MOTION    = 15.79749500
ECCENTRICITY   = .0002065
INCLINATION    = 97.2835
RA_OF_ASC_NODE = 248.0559
ARG_OF_PERICENTER = 92.6024
MEAN_ANOMALY   = 105.1500

EPHEMERIS_TYPE = 0
CLASSIFICATION_TYPE = U
NORAD_CAT_ID   = 67817
ELEMENT_SET_NO = 999
REV_AT_EPOCH   = 367
BSTAR          = -.11793E-1
MEAN_MOTION_DOT = -.1883025E-1
MEAN_MOTION_DDOT = 0

CCSDS_OMM_VERS = 2.0
CREATION_DATE  = 
ORIGINATOR     = 

OBJECT_NAME    = STARLINK-36346
OBJECT_ID      = 2026-032X
CENTER_NAME    = EARTH
REF_FRAME      = TEME
TIME_SYSTEM    = UTC
MEAN_ELEMENT_THEORY = SGP/SGP4

EPOCH          = 2026-03-02T20:00:01.999008
MEAN_MOTION    = 15.80804888
ECCENTRICITY   = .0001504
INCLINATION    = 97.2829
RA_OF_ASC_NODE = 248.0600
ARG_OF_PERICENTER = 75.5858
MEAN_ANOMALY   = 132.1744

EPHEMERIS_TYPE = 0
CLASSIFICATION_TYPE = U
NORAD_CAT_ID   = 67818
ELEMENT_SET_NO = 999
REV_AT_EPOCH   = 367
BSTAR          = .11696E-3
MEAN_MOTION_DOT = .22308E-3
MEAN_MOTION_DDOT = 0

CCSDS_OMM_VERS = 2.0
CREATION_DATE  = 
ORIGINATOR     = 

OBJECT_NAME    = STARLINK-36788
OBJECT_ID      = 2026-032Y
CENTER_NAME    = EARTH
REF_FRAME      = TEME
TIME_SYSTEM    = UTC
MEAN_ELEMENT_THEORY = SGP/SGP4

EPOCH          = 2026-03-02T20:00:01.999008
MEAN_MOTION    = 15.75153568
ECCENTRICITY   = .0001628
INCLINATION    = 97.2845
RA_OF_ASC_NODE = 248.0339
ARG_OF_PERICENTER = 86.7436
MEAN_ANOMALY   = 57.9873

EPHEMERIS_TYPE = 0
CLASSIFICATION_TYPE = U
NORAD_CAT_ID   = 67819
ELEMENT_SET_NO = 999
REV_AT_EPOCH   = 361
BSTAR          = .28306E-3
MEAN_MOTION_DOT = .42234E-3
MEAN_MOTION_DDOT = 0

CCSDS_OMM_VERS = 2.0
CREATION_DATE  = 
ORIGINATOR     = 

OBJECT_NAME    = STARLINK-36353
OBJECT_ID      = 2026-032Z
CENTER_NAME    = EARTH
REF_FRAME      = TEME
TIME_SYSTEM    = UTC
MEAN_ELEMENT_THEORY = SGP/SGP4

EPOCH          = 2026-03-02T20:00:01.999008
MEAN_MOTION    = 15.75063741
ECCENTRICITY   = .0001745
INCLINATION    = 97.2842
RA_OF_ASC_NODE = 248.0422
ARG_OF_PERICENTER = 77.1231
MEAN_ANOMALY   = 89.5717

EPHEMERIS_TYPE = 0
CLASSIFICATION_TYPE = U
NORAD_CAT_ID   = 67820
ELEMENT_SET_NO = 999
REV_AT_EPOCH   = 367
BSTAR          = .12868E-2
MEAN_MOTION_DOT = .195196E-2
MEAN_MOTION_DDOT = 0

CCSDS_OMM_VERS = 2.0
CREATION_DATE  = 
ORIGINATOR     = 

OBJECT_NAME    = STARLINK-36644
OBJECT_ID      = 2026-033A
CENTER_NAME    = EARTH
REF_FRAME      = TEME
TIME_SYSTEM    = UTC
MEAN_ELEMENT_THEORY = SGP/SGP4

EPOCH          = 2026-03-02T17:59:30.716448
MEAN_MOTION    = 15.82080081
ECCENTRICITY   = .0001787
INCLINATION    = 42.9972
RA_OF_ASC_NODE = 314.0582
ARG_OF_PERICENTER = 253.3844
MEAN_ANOMALY   = 106.6831

EPHEMERIS_TYPE = 0
CLASSIFICATION_TYPE = U
NORAD_CAT_ID   = 67821
ELEMENT_SET_NO = 999
REV_AT_EPOCH   = 352
BSTAR          = .17631E-2
MEAN_MOTION_DOT = .389061E-2
MEAN_MOTION_DDOT = 0

CCSDS_OMM_VERS = 2.0
CREATION_DATE  = 
ORIGINATOR     = 

OBJECT_NAME    = STARLINK-36643
OBJECT_ID      = 2026-033B
CENTER_NAME    = EARTH
REF_FRAME      = TEME
TIME_SYSTEM    = UTC
MEAN_ELEMENT_THEORY = SGP/SGP4

EPOCH          = 2026-03-02T17:58:25.885344
MEAN_MOTION    = 15.82071905
ECCENTRICITY   = .0001764
INCLINATION    = 42.9976
RA_OF_ASC_NODE = 314.0511
ARG_OF_PERICENTER = 251.0522
MEAN_ANOMALY   = 109.0159

EPHEMERIS_TYPE = 0
CLASSIFICATION_TYPE = U
NORAD_CAT_ID   = 67822
ELEMENT_SET_NO = 999
REV_AT_EPOCH   = 352
BSTAR          = .15595E-2
MEAN_MOTION_DOT = .342045E-2
MEAN_MOTION_DDOT = 0

CCSDS_OMM_VERS = 2.0
CREATION_DATE  = 
ORIGINATOR     = 

OBJECT_NAME    = STARLINK-36646
OBJECT_ID      = 2026-033C
CENTER_NAME    = EARTH
REF_FRAME      = TEME
TIME_SYSTEM    = UTC
MEAN_ELEMENT_THEORY = SGP/SGP4

EPOCH          = 2026-03-02T20:00:01.999008
MEAN_MOTION    = 15.81980952
ECCENTRICITY   = .0001587
INCLINATION    = 42.9977
RA_OF_ASC_NODE = 313.5254
ARG_OF_PERICENTER = 260.1487
MEAN_ANOMALY   = 225.6979

EPHEMERIS_TYPE = 0
CLASSIFICATION_TYPE = U
NORAD_CAT_ID   = 67823
ELEMENT_SET_NO = 999
REV_AT_EPOCH   = 356
BSTAR          = .31266E-3
MEAN_MOTION_DOT = .65695E-3
MEAN_MOTION_DDOT = 0

CCSDS_OMM_VERS = 2.0
CREATION_DATE  = 
ORIGINATOR     = 

OBJECT_NAME    = STARLINK-36647
OBJECT_ID      = 2026-033D
CENTER_NAME    = EARTH
REF_FRAME      = TEME
TIME_SYSTEM    = UTC
MEAN_ELEMENT_THEORY = SGP/SGP4

EPOCH          = 2026-03-02T20:00:01.999008
MEAN_MOTION    = 15.82009921
ECCENTRICITY   = .000158
INCLINATION    = 42.9982
RA_OF_ASC_NODE = 313.5145
ARG_OF_PERICENTER = 265.2104
MEAN_ANOMALY   = 224.8949

EPHEMERIS_TYPE = 0
CLASSIFICATION_TYPE = U
NORAD_CAT_ID   = 67824
ELEMENT_SET_NO = 999
REV_AT_EPOCH   = 356
BSTAR          = .43083E-4
MEAN_MOTION_DOT = .8545E-4
MEAN_MOTION_DDOT = 0

CCSDS_OMM_VERS = 2.0
CREATION_DATE  = 
ORIGINATOR     = 

OBJECT_NAME    = STARLINK-36648
OBJECT_ID      = 2026-033E
CENTER_NAME    = EARTH
REF_FRAME      = TEME
TIME_SYSTEM    = UTC
MEAN_ELEMENT_THEORY = SGP/SGP4

EPOCH          = 2026-03-02T20:00:01.999008
MEAN_MOTION    = 15.81993557
ECCENTRICITY   = .0001485
INCLINATION    = 42.9977
RA_OF_ASC_NODE = 313.5038
ARG_OF_PERICENTER = 268.0271
MEAN_ANOMALY   = 226.3585

EPHEMERIS_TYPE = 0
CLASSIFICATION_TYPE = U
NORAD_CAT_ID   = 67825
ELEMENT_SET_NO = 999
REV_AT_EPOCH   = 356
BSTAR          = .23752E-3
MEAN_MOTION_DOT = .49715E-3
MEAN_MOTION_DDOT = 0

