STARLINK-36767          
1 67814U 26032T   26061.83335647  .00071291  00000+0  47583-3 0  9992
2 67814  97.2842 248.0180 0001497  86.4029  20.3326 15.75142342  3679
STARLINK-36797          
1 67815U 26032U   26061.83335647  .00061671  00000+0  41285-3 0  9997
2 67815  97.2843 248.0391 0000892  97.7529  58.9820 15.75106474  3619
STARLINK-36343          
1 67816U 26032V   26061.83335647  .00028953  00000+0  15153-3 0  9999
2 67816  97.2832 248.0460 0001638  78.7639  97.9488 15.80794766  3611
STARLINK-36756          
1 67817U 26032W   26061.83335647 -.01883025  00000+0 -11793-1 0  9996
2 67817  97.2835 248.0559 0002065  92.6024 105.1500 15.79749500  3679
STARLINK-36346          
1 67818U 26032X   26061.83335647  .00022308  00000+0  11696-3 0  9997
2 67818  97.2829 248.0600 0001504  75.5858 132.1744 15.80804888  3675
STARLINK-36788          
1 67819U 26032Y   26061.83335647  .00042234  00000+0  28306-3 0  9994
2 67819  97.2845 248.0339 0001628  86.7436  57.9873 15.75153568  3613
STARLINK-36353          
1 67820U 26032Z   26061.83335647  .00195196  00000+0  12868-2 0  9997
2 67820  97.2842 248.0422 0001745  77.1231  89.5717 15.75063741  3679
STARLINK-36644          
1 67821U 26033A   26061.74966107  .00389061  00000+0  17631-2 0  9999
2 67821  42.9972 314.0582 0001787 253.3844 106.6831 15.82080081  3522
STARLINK-36643          
1 67822U 26033B   26061.74891071  .00342045  00000+0  15595-2 0  9995
2 67822  42.9976 314.0511 0001764 251.0522 109.0159 15.82071905  3527
STARLINK-36646          
1 67823U 26033C   26061.83335647  .00065695  00000+0  31266-3 0  9995
2 67823  42.9977 313.5254 0001587 260.1487 225.6979 15.81980952  3560
STARLINK-36647          
1 67824U 26033D   26061.83335647  .00008545  00000+0  43083-4 0  9998
2 67824  42.9982 313.5145 0001580 265.2104 224.8949 15.82009921  3568
STARLINK-36648          
1 67825U 26033E   26061.83335647  .00049715  00000+0  23752-3 0  9993
2 67825  42.9977 313.5038 0001485 268.0271 226.3585 15.81993557  3563
